{"type": "FeatureCollection", "features": [ {"type": "Feature", "properties": {"norad_id": 33153, "name": "INTELSAT 25 (IS-25)", "group": "intelsat", "lat": 2.2541921129094282, "lon": 172.20242727493638, "alt_km": 35789.35080870718, "timestamp": "2025-12-21T07:34:34.207819+00:00", "meta": {"OBJECT_NAME": "INTELSAT 25 (IS-25)", "OBJECT_ID": "2008-034A", "EPOCH": "2025-12-20T21:38:26.198304", "MEAN_MOTION": 1.00269922, "ECCENTRICITY": 0.00048031, "INCLINATION": 2.2474, "RA_OF_ASC_NODE": 82.5624, "ARG_OF_PERICENTER": 188.1555, "MEAN_ANOMALY": 112.1057, "EPHEMERIS_TYPE": 0, "CLASSIFICATION_TYPE": "U", "NORAD_CAT_ID": 33153, "ELEMENT_SET_NO": 999, "REV_AT_EPOCH": 6390, "BSTAR": 0, "MEAN_MOTION_DOT": -2.03e-06, "MEAN_MOTION_DDOT": 0}, "tle": {"line1": "1 33153U 08034A   25354.90169211 -.00000203  00000+0  00000+0 0  9992", "line2": "2 33153   2.2474  82.5624 0004803 188.1555 112.1057  1.00269922 63907"}}, "geometry": {"type": "Point", "coordinates": [172.20242727493638, 2.2541921129094282]}}, {"type": "Feature", "properties": {"norad_id": 33376, "name": "GALAXY 19 (G-19)", "group": "intelsat", "lat": 0.022042117995567892, "lon": 106.76396324155375, "alt_km": 35796.647283001825, "timestamp": "2025-12-21T07:34:34.207830+00:00", "meta": {"OBJECT_NAME": "GALAXY 19 (G-19)", "OBJECT_ID": "2008-045A", "EPOCH": "2025-12-20T16:11:29.094720", "MEAN_MOTION": 1.00271403, "ECCENTRICITY": 0.00025195, "INCLINATION": 0.0149, "RA_OF_ASC_NODE": 308.6931, "ARG_OF_PERICENTER": 326.0211, "MEAN_ANOMALY": 320.6622, "EPHEMERIS_TYPE": 0, "CLASSIFICATION_TYPE": "U", "NORAD_CAT_ID": 33376, "ELEMENT_SET_NO": 999, "REV_AT_EPOCH": 6311, "BSTAR": 0, "MEAN_MOTION_DOT": -1.16e-06, "MEAN_MOTION_DDOT": 0}, "tle": {"line1": "1 33376U 08045A   25354.67464230 -.00000116  00000+0  00000+0 0  9997", "line2": "2 33376   0.0149 308.6931 0002519 326.0211 320.6622  1.00271403 63110"}}, "geometry": {"type": "Point", "coordinates": [106.76396324155375, 0.022042117995567892]}}, {"type": "Feature", "properties": {"norad_id": 35493, "name": "FM-5", "group": "intelsat", "lat": 0.01329866265977597, "lon": 117.62549348750684, "alt_km": 35782.51436048425, "timestamp": "2025-12-21T07:34:34.207841+00:00", "meta": {"OBJECT_NAME": "FM-5", "OBJECT_ID": "2009-034A", "EPOCH": "2025-12-20T21:22:50.191680", "MEAN_MOTION": 1.00271574, "ECCENTRICITY": 0.00011137, "INCLINATION": 0.0228, "RA_OF_ASC_NODE": 291.0132, "ARG_OF_PERICENTER": 225.4052, "MEAN_ANOMALY": 167.8719, "EPHEMERIS_TYPE": 0, "CLASSIFICATION_TYPE": "U", "NORAD_CAT_ID": 35493, "ELEMENT_SET_NO": 999, "REV_AT_EPOCH": 4485, "BSTAR": 0, "MEAN_MOTION_DOT": -1.77e-06, "MEAN_MOTION_DDOT": 0}, "tle": {"line1": "1 35493U 09034A   25354.89085870 -.00000177  00000+0  00000+0 0  9998", "line2": "2 35493   0.0228 291.0132 0001113 225.4052 167.8719  1.00271574 44859"}}, "geometry": {"type": "Point", "coordinates": [117.62549348750684, 0.01329866265977597]}}, {"type": "Feature", "properties": {"norad_id": 36097, "name": "INTELSAT 14 (IS-14)", "group": "intelsat", "lat": 0.01715067757884609, "lon": 158.75399345966878, "alt_km": 35792.02417330143, "timestamp": "2025-12-21T07:34:34.207852+00:00", "meta": {"OBJECT_NAME": "INTELSAT 14 (IS-14)", "OBJECT_ID": "2009-064A", "EPOCH": "2025-12-20T21:34:34.069152", "MEAN_MOTION": 1.0027075, "ECCENTRICITY": 0.00024598, "INCLINATION": 0.0108, "RA_OF_ASC_NODE": 9.8926, "ARG_OF_PERICENTER": 271.5503, "MEAN_ANOMALY": 86.9339, "EPHEMERIS_TYPE": 0, "CLASSIFICATION_TYPE": "U", "NORAD_CAT_ID": 36097, "ELEMENT_SET_NO": 999, "REV_AT_EPOCH": 5881, "BSTAR": 0, "MEAN_MOTION_DOT": -2.5e-06, "MEAN_MOTION_DDOT": 0}, "tle": {"line1": "1 36097U 09064A   25354.89900543 -.00000250  00000+0  00000+0 0  9997", "line2": "2 36097   0.0108   9.8926 0002459 271.5503  86.9339  1.00270750 58815"}}, "geometry": {"type": "Point", "coordinates": [158.75399345966878, 0.01715067757884609]}}, {"type": "Feature", "properties": {"norad_id": 36106, "name": "INTELSAT 15 (IS-15)", "group": "intelsat", "lat": -0.034456048910284545, "lon": -71.06315351440524, "alt_km": 35777.07139433026, "timestamp": "2025-12-21T07:34:34.207862+00:00", "meta": {"OBJECT_NAME": "INTELSAT 15 (IS-15)", "OBJECT_ID": "2009-067A", "EPOCH": "2025-12-20T22:11:45.506400", "MEAN_MOTION": 1.00271866, "ECCENTRICITY": 0.00021513, "INCLINATION": 0.0148, "RA_OF_ASC_NODE": 340.2199, "ARG_OF_PERICENTER": 300.4316, "MEAN_ANOMALY": 227.2022, "EPHEMERIS_TYPE": 0, "CLASSIFICATION_TYPE": "U", "NORAD_CAT_ID": 36106, "ELEMENT_SET_NO": 999, "REV_AT_EPOCH": 3944, "BSTAR": 0, "MEAN_MOTION_DOT": -1.62e-06, "MEAN_MOTION_DDOT": 0}, "tle": {"line1": "1 36106U 09067A   25354.92483225 -.00000162  00000+0  00000+0 0  9990", "line2": "2 36106   0.0148 340.2199 0002151 300.4316 227.2022  1.00271866 39443"}}, "geometry": {"type": "Point", "coordinates": [-71.06315351440524, -0.034456048910284545]}}, {"type": "Feature", "properties": {"norad_id": 36131, "name": "DIRECTV 12", "group": "intelsat", "lat": 0.012776942954320131, "lon": 101.05961686966536, "alt_km": 35786.79548075196, "timestamp": "2025-12-21T07:34:34.207873+00:00", "meta": {"OBJECT_NAME": "DIRECTV 12", "OBJECT_ID": "2009-075A", "EPOCH": "2025-12-20T21:18:05.647104", "MEAN_MOTION": 1.00270531, "ECCENTRICITY": 3.37e-05, "INCLINATION": 0.0166, "RA_OF_ASC_NODE": 99.1337, "ARG_OF_PERICENTER": 257.3135, "MEAN_ANOMALY": 310.0782, "EPHEMERIS_TYPE": 0, "CLASSIFICATION_TYPE": "U", "NORAD_CAT_ID": 36131, "ELEMENT_SET_NO": 999, "REV_AT_EPOCH": 4476, "BSTAR": 0, "MEAN_MOTION_DOT": -8e-07, "MEAN_MOTION_DDOT": 0}, "tle": {"line1": "1 36131U 09075A   25354.88756536 -.00000080  00000+0  00000+0 0  9999", "line2": "2 36131   0.0166  99.1337 0000337 257.3135 310.0782  1.00270531 44761"}}, "geometry": {"type": "Point", "coordinates": [101.05961686966536, 0.012776942954320131]}}, {"type": "Feature", "properties": {"norad_id": 36397, "name": "INTELSAT 16 (IS-16)", "group": "intelsat", "lat": 0.0275627986831143, "lon": 127.5663920663429, "alt_km": 35792.47506247154, "timestamp": "2025-12-21T07:34:34.207884+00:00", "meta": {"OBJECT_NAME": "INTELSAT 16 (IS-16)", "OBJECT_ID": "2010-006A", "EPOCH": "2025-12-20T21:25:42.417120", "MEAN_MOTION": 1.00271033, "ECCENTRICITY": 0.0001835, "INCLINATION": 0.0119, "RA_OF_ASC_NODE": 348.8016, "ARG_OF_PERICENTER": 280.9561, "MEAN_ANOMALY": 65.199, "EPHEMERIS_TYPE": 0, "CLASSIFICATION_TYPE": "U", "NORAD_CAT_ID": 36397, "ELEMENT_SET_NO": 999, "REV_AT_EPOCH": 5786, "BSTAR": 0, "MEAN_MOTION_DOT": -2.21e-06, "MEAN_MOTION_DDOT": 0}, "tle": {"line1": "1 36397U 10006A   25354.89285205 -.00000221  00000+0  00000+0 0  9997", "line2": "2 36397   0.0119 348.8016 0001835 280.9561  65.1990  1.00271033 57862"}}, "geometry": {"type": "Point", "coordinates": [127.5663920663429, 0.0275627986831143]}}, {"type": "Feature", "properties": {"norad_id": 37185, "name": "XM-5", "group": "intelsat", "lat": 0.02745220491437871, "lon": 88.55569461076819, "alt_km": 35782.19229130674, "timestamp": "2025-12-21T07:34:34.207894+00:00", "meta": {"OBJECT_NAME": "XM-5", "OBJECT_ID": "2010-053A", "EPOCH": "2025-12-20T21:14:35.981088", "MEAN_MOTION": 1.00269291, "ECCENTRICITY": 0.00022437, "INCLINATION": 0.0661, "RA_OF_ASC_NODE": 270.9496, "ARG_OF_PERICENTER": 238.8649, "MEAN_ANOMALY": 143.3591, "EPHEMERIS_TYPE": 0, "CLASSIFICATION_TYPE": "U", "NORAD_CAT_ID": 37185, "ELEMENT_SET_NO": 999, "REV_AT_EPOCH": 5569, "BSTAR": 0, "MEAN_MOTION_DOT": 0, "MEAN_MOTION_DDOT": 0}, "tle": {"line1": "1 37185U 10053A   25354.88513867  .00000000  00000+0  00000+0 0  9996", "line2": "2 37185   0.0661 270.9496 0002243 238.8649 143.3591  1.00269291 55698"}}, "geometry": {"type": "Point", "coordinates": [88.55569461076819, 0.02745220491437871]}}, {"type": "Feature", "properties": {"norad_id": 37238, "name": "INTELSAT 17 (IS-17)", "group": "intelsat", "lat": -0.02976507725961286, "lon": -90.26786605495326, "alt_km": 35775.066463313626, "timestamp": "2025-12-21T07:34:34.207905+00:00", "meta": {"OBJECT_NAME": "INTELSAT 17 (IS-17)", "OBJECT_ID": "2010-065B", "EPOCH": "2025-12-20T22:06:16.032096", "MEAN_MOTION": 1.00271504, "ECCENTRICITY": 0.00028194, "INCLINATION": 0.0307, "RA_OF_ASC_NODE": 70.0701, "ARG_OF_PERICENTER": 221.6181, "MEAN_ANOMALY": 195.6001, "EPHEMERIS_TYPE": 0, "CLASSIFICATION_TYPE": "U", "NORAD_CAT_ID": 37238, "ELEMENT_SET_NO": 999, "REV_AT_EPOCH": 5146, "BSTAR": 0, "MEAN_MOTION_DOT": 0, "MEAN_MOTION_DDOT": 0}, "tle": {"line1": "1 37238U 10065B   25354.92101889  .00000000  00000+0  00000+0 0  9990", "line2": "2 37238   0.0307  70.0701 0002819 221.6181 195.6001  1.00271504 51469"}}, "geometry": {"type": "Point", "coordinates": [-90.26786605495326, -0.02976507725961286]}}, {"type": "Feature", "properties": {"norad_id": 37392, "name": "INTELSAT 28 (IS-28)", "group": "intelsat", "lat": 1.3485353236228177, "lon": 172.02969973069244, "alt_km": 35789.59665766162, "timestamp": "2025-12-21T07:34:34.207915+00:00", "meta": {"OBJECT_NAME": "INTELSAT 28 (IS-28)", "OBJECT_ID": "2011-016A", "EPOCH": "2025-12-20T21:38:26.198304", "MEAN_MOTION": 1.00269764, "ECCENTRICITY": 0.00036864, "INCLINATION": 1.3444, "RA_OF_ASC_NODE": 84.9687, "ARG_OF_PERICENTER": 188.5152, "MEAN_ANOMALY": 109.1561, "EPHEMERIS_TYPE": 0, "CLASSIFICATION_TYPE": "U", "NORAD_CAT_ID": 37392, "ELEMENT_SET_NO": 999, "REV_AT_EPOCH": 5149, "BSTAR": 0, "MEAN_MOTION_DOT": -2.03e-06, "MEAN_MOTION_DDOT": 0}, "tle": {"line1": "1 37392U 11016A   25354.90169211 -.00000203  00000+0  00000+0 0  9995", "line2": "2 37392   1.3444  84.9687 0003686 188.5152 109.1561  1.00269764 51494"}}, "geometry": {"type": "Point", "coordinates": [172.02969973069244, 1.3485353236228177]}}]}